[{"OBJECT_NAME":"STARLINK-31741","OBJECT_ID":"2024-074S","EPOCH":"2026-03-09T03:19:28.512480","MEAN_MOTION":15.27586163,"ECCENTRICITY":0.00017149,"INCLINATION":43.0023,"RA_OF_ASC_NODE":346.3262,"ARG_OF_PERICENTER":275.1195,"MEAN_ANOMALY":84.9461,"EPHEMERIS_TYPE":0,"CLASSIFICATION_TYPE":"U","NORAD_CAT_ID":59550,"ELEMENT_SET_NO":999,"REV_AT_EPOCH":10593,"BSTAR":0.00012593429,"MEAN_MOTION_DOT":3.205e-5,"MEAN_MOTION_DDOT":0},{"OBJECT_NAME":"FLOCK 4G-1","OBJECT_ID":"2025-009BK","EPOCH":"2026-03-09T18:13:41.778912","MEAN_MOTION":15.27421081,"ECCENTRICITY":0.00031801,"INCLINATION":97.4059,"RA_OF_ASC_NODE":151.3158,"ARG_OF_PERICENTER":323.1401,"MEAN_ANOMALY":36.9619,"EPHEMERIS_TYPE":0,"CLASSIFICATION_TYPE":"U","NORAD_CAT_ID":62666,"ELEMENT_SET_NO":999,"REV_AT_EPOCH":6372,"BSTAR":0.00050653644,"MEAN_MOTION_DOT":0.00013534,"MEAN_MOTION_DDOT":0}]
