STARLINK-31741          
1 59550U 24074S   26068.13852445  .00003205  00000+0  12593-3 0  9997
2 59550  43.0023 346.3262 0001714 275.1195  84.9461 15.27586163105931
FLOCK 4G-1              
1 62666U 25009BK  26068.75951132  .00013534  00000+0  50654-3 0  9995
2 62666  97.4059 151.3158 0003180 323.1401  36.9619 15.27421081 63725
